CTC2_L_00414016-03
1 67290U 24553GU  26037.47795139  .00000000  00000+0  00000-0 0  9995
2 67290  80.0000 180.0000 0000000   0.0000   0.0000 12.65579224    17
CTC2_L_00414016-04
1 67291U 26090MY  26037.47795139  .00000000  00000+0  00000-0 0  9994
2 67291  80.0000 180.0000 0000000   0.0000  90.0000 12.65579224    17
CTC2_L_00414017-01
1 67292U 24596RC  26037.47795139  .00000000  00000+0  00000-0 0  9994
2 67292  80.0000 192.0000 0000000   0.0000 192.0000 12.65579224    14
CTC2_L_00414017-02
1 67293U 24867WM  26037.47795139  .00000000  00000+0  00000-0 0  9996
2 67293  80.0000 192.0000 0000000   0.0000 282.0000 12.65579224    15
CTC2_L_00414017-03
1 67294U 25761P   26037.47795139  .00000000  00000+0  00000-0 0  9991
2 67294  80.0000 192.0000 0000000   0.0000  12.0000 12.65579224    17
CTC2_L_00414017-04
1 67295U 26032Y   26037.47795139  .00000000  00000+0  00000-0 0  9994
2 67295  80.0000 192.0000 0000000   0.0000 102.0000 12.65579224    18
CTC2_L_00414018-01
1 67296U 23689BX  26037.47795139  .00000000  00000+0  00000-0 0  9990
2 67296  80.0000 204.0000 0000000   0.0000 204.0000 12.65579224    16
CTC2_L_00414018-02
1 67297U 24994RK  26037.47795139  .00000000  00000+0  00000-0 0  9991
2 67297  80.0000 204.0000 0000000   0.0000 294.0000 12.65579224    16
CTC2_L_00414018-03
1 67298U 24372E   26037.47795139  .00000000  00000+0  00000-0 0  9992
2 67298  80.0000 204.0000 0000000   0.0000  24.0000 12.65579224    18
CTC2_L_00414018-04
1 67299U 24411JM  26037.47795139  .00000000  00000+0  00000-0 0  9997
2 67299  80.0000 204.0000 0000000   0.0000 114.0000 12.65579224    19
CTC2_L_00414019-01
1 67300U 22763ZV  26037.47795139  .00000000  00000+0  00000-0 0  9998
2 67300  80.0000 216.0000 0000000   0.0000 216.0000 12.65579224    18
CTC2_L_00414019-02
1 67301U 26070TB  26037.47795139  .00000000  00000+0  00000-0 0  9994
2 67301  80.0000 216.0000 0000000   0.0000 306.0000 12.65579224    19
CTC2_L_00414019-03
1 67302U 25586RC  26037.47795139  .00000000  00000+0  00000-0 0  9996
2 67302  80.0000 216.0000 0000000   0.0000  36.0000 12.65579224    10
CTC2_L_00414019-04
1 67303U 22184DJ  26037.47795139  .00000000  00000+0  00000-0 0  9998
2 67303  80.0000 216.0000 0000000   0.0000 126.0000 12.65579224    11
CTC2_L_00414020-01
1 67304U 25035YE  26037.47795139  .00000000  00000+0  00000-0 0  9997
2 67304  80.0000 228.0000 0000000   0.0000 228.0000 12.65579224    18
CTC2_L_00414020-02
1 67305U 24636FG  26037.47795139  .00000000  00000+0  00000-0 0  9994
2 67305  80.0000 228.0000 0000000   0.0000 318.0000 12.65579224    19
CTC2_L_00414020-03
1 67306U 24678HR  26037.47795139  .00000000  00000+0  00000-0 0  9991
2 67306  80.0000 228.0000 0000000   0.0000  48.0000 12.65579224    10
CTC2_L_00414020-04
1 67307U 23827S   26037.47795139  .00000000  00000+0  00000-0 0  9997
2 67307  80.0000 228.0000 0000000   0.0000 138.0000 12.65579224    11
CTC2_L_00414021-01
1 67308U 24846ZR  26037.47795139  .00000000  00000+0  00000-0 0  9990
2 67308  80.0000 240.0000 0000000   0.0000 240.0000 12.65579224    10
CTC2_L_00414021-02
1 67309U 22558FP  26037.47795139  .00000000  00000+0  00000-0 0  9999
2 67309  80.0000 240.0000 0000000   0.0000 330.0000 12.65579224    11
CTC2_L_00414021-03
1 67310U 25767FW  26037.47795139  .00000000  00000+0  00000-0 0  9996
2 67310  80.0000 240.0000 0000000   0.0000  60.0000 12.65579224    13
CTC2_L_00414021-04
1 67311U 26373YB  26037.47795139  .00000000  00000+0  00000-0 0  9991
2 67311  80.0000 240.0000 0000000   0.0000 150.0000 12.65579224    14
CTC2_L_00414022-01
1 67312U 25914DV  26037.47795139  .00000000  00000+0  00000-0 0  9992
2 67312  80.0000 252.0000 0000000   0.0000 252.0000 12.65579224    11
CTC2_L_00414022-02
1 67313U 22731CR  26037.47795139  .00000000  00000+0  00000-0 0  9997
2 67313  80.0000 252.0000 0000000   0.0000 342.0000 12.65579224    12
CTC2_L_00414022-03
1 67314U 22817GO  26037.47795139  .00000000  00000+0  00000-0 0  9993
2 67314  80.0000 252.0000 0000000   0.0000  72.0000 12.65579224    13
CTC2_L_00414022-04
1 67315U 24176RQ  26037.47795139  .00000000  00000+0  00000-0 0  9994
2 67315  80.0000 252.0000 0000000   0.0000 162.0000 12.65579224    14
CTC2_L_00414023-01
1 67316U 25720MP  26037.47795139  .00000000  00000+0  00000-0 0  9991
2 67316  80.0000 264.0000 0000000   0.0000 264.0000 12.65579224    11
CTC2_L_00414023-02
1 67317U 25210SQ  26037.47795139  .00000000  00000+0  00000-0 0  9996
2 67317  80.0000 264.0000 0000000   0.0000 354.0000 12.65579224    12
CTC2_L_00414023-03
1 67318U 22315YF  26037.47795139  .00000000  00000+0  00000-0 0  9990
2 67318  80.0000 264.0000 0000000   0.0000  84.0000 12.65579224    13
CTC2_L_00414023-04
1 67319U 26741TU  26037.47795139  .00000000  00000+0  00000-0 0  9998
2 67319  80.0000 264.0000 0000000   0.0000 174.0000 12.65579224    14
CTC2_L_00414024-01
1 67320U 24835TZ  26037.47795139  .00000000  00000+0  00000-0 0  9992
2 67320  80.0000 276.0000 0000000   0.0000 276.0000 12.65579224    12
CTC2_L_00414024-02
1 67321U 23997VY  26037.47795139  .00000000  00000+0  00000-0 0  9991
2 67321  80.0000 276.0000 0000000   0.0000   6.0000 12.65579224    14
CTC2_L_00414024-03
1 67322U 22393XE  26037.47795139  .00000000  00000+0  00000-0 0  9991
2 67322  80.0000 276.0000 0000000   0.0000  96.0000 12.65579224    14
CTC2_L_00414024-04
1 67323U 25146UQ  26037.47795139  .00000000  00000+0  00000-0 0  9991
2 67323  80.0000 276.0000 0000000   0.0000 186.0000 12.65579224    15
CTC2_L_00414025-01
1 67324U 25059VV  26037.47795139  .00000000  00000+0  00000-0 0  9995
2 67324  80.0000 288.0000 0000000   0.0000 288.0000 12.65579224    12
CTC2_L_00414025-02
1 67325U 24368IQ  26037.47795139  .00000000  00000+0  00000-0 0  9998
2 67325  80.0000 288.0000 0000000   0.0000  18.0000 12.65579224    14
CTC2_L_00414025-03
1 67326U 22957LS  26037.47795139  .00000000  00000+0  00000-0 0  9991
2 67326  80.0000 288.0000 0000000   0.0000 108.0000 12.65579224    15
CTC2_L_00414025-04
1 67327U 26111RH  26037.47795139  .00000000  00000+0  00000-0 0  9998
2 67327  80.0000 288.0000 0000000   0.0000 198.0000 12.65579224    15
CTC2_L_00414026-01
1 67328U 23513HV  26037.47795139  .00000000  00000+0  00000-0 0  9992
2 67328  80.0000 300.0000 0000000   0.0000 300.0000 12.65579224    16
CTC2_L_00414026-02
1 67329U 22940JS  26037.47795139  .00000000  00000+0  00000-0 0  9996
2 67329  80.0000 300.0000 0000000   0.0000  30.0000 12.65579224    17
CTC2_L_00414026-03
1 67330U 26800IQ  26037.47795139  .00000000  00000+0  00000-0 0  9997
2 67330  80.0000 300.0000 0000000   0.0000 120.0000 12.65579224    19
CTC2_L_00414026-04
1 67331U 26848CO  26037.47795139  .00000000  00000+0  00000-0 0  9990
2 67331  80.0000 300.0000 0000000   0.0000 210.0000 12.65579224    10
CTC2_L_00414027-01
1 67332U 22492VG  26037.47795139  .00000000  00000+0  00000-0 0  9992
2 67332  80.0000 312.0000 0000000   0.0000 312.0000 12.65579224    17
CTC2_L_00414027-02
1 67333U 22711HR  26037.47795139  .00000000  00000+0  00000-0 0  9997
2 67333  80.0000 312.0000 0000000   0.0000  42.0000 12.65579224    18
CTC2_L_00414027-03
1 67334U 22173LK  26037.47795139  .00000000  00000+0  00000-0 0  9990
2 67334  80.0000 312.0000 0000000   0.0000 132.0000 12.65579224    19
CTC2_L_00414027-04
1 67335U 23364S   26037.47795139  .00000000  00000+0  00000-0 0  9994
2 67335  80.0000 312.0000 0000000   0.0000 222.0000 12.65579224    10
CTC2_L_00414028-01
1 67336U 24236EY  26037.47795139  .00000000  00000+0  00000-0 0  9994
2 67336  80.0000 324.0000 0000000   0.0000 324.0000 12.65579224    17
CTC2_L_00414028-02
1 67337U 26298MA  26037.47795139  .00000000  00000+0  00000-0 0  9995
2 67337  80.0000 324.0000 0000000   0.0000  54.0000 12.65579224    18
CTC2_L_00414028-03
1 67338U 25610CB  26037.47795139  .00000000  00000+0  00000-0 0  9993
2 67338  80.0000 324.0000 0000000   0.0000 144.0000 12.65579224    19
CTC2_L_00414028-04
1 67339U 22664ZZ  26037.47795139  .00000000  00000+0  00000-0 0  9990
2 67339  80.0000 324.0000 0000000   0.0000 234.0000 12.65579224    10
CTC2_L_00414029-01
1 67340U 24451BE  26037.47795139  .00000000  00000+0  00000-0 0  9998
2 67340  80.0000 336.0000 0000000   0.0000 336.0000 12.65579224    18
CTC2_L_00414029-02
1 67341U 23721BI  26037.47795139  .00000000  00000+0  00000-0 0  9998
2 67341  80.0000 336.0000 0000000   0.0000  66.0000 12.65579224    19
CTC2_L_00414029-03
1 67342U 24745UW  26037.47795139  .00000000  00000+0  00000-0 0  9996
2 67342  80.0000 336.0000 0000000   0.0000 156.0000 12.65579224    10
CTC2_L_00414029-04
1 67343U 23310HS  26037.47795139  .00000000  00000+0  00000-0 0  9994
2 67343  80.0000 336.0000 0000000   0.0000 246.0000 12.65579224    11
CTC2_L_00414030-01
1 67344U 23532GK  26037.47795139  .00000000  00000+0  00000-0 0  9991
2 67344  80.0000 348.0000 0000000   0.0000 348.0000 12.65579224    18
CTC2_L_00414030-02
1 67345U 22248MZ  26037.47795139  .00000000  00000+0  00000-0 0  9995
2 67345  80.0000 348.0000 0000000   0.0000  78.0000 12.65579224    19
CTC2_L_00414030-03
1 67346U 26155XU  26037.47795139  .00000000  00000+0  00000-0 0  9997
2 67346  80.0000 348.0000 0000000   0.0000 168.0000 12.65579224    10
CTC2_L_00414030-04
1 67347U 25689DT  26037.47795139  .00000000  00000+0  00000-0 0  9999
2 67347  80.0000 348.0000 0000000   0.0000 258.0000 12.65579224    11
